<?xml version="1.0" encoding="UTF-8"?>
<ndm xmlns:xsi="http://www.w3.org/2001/XMLSchema-instance" xsi:noNamespaceSchemaLocation="https://sanaregistry.org/r/ndmxml_unqualified/ndmxml-2.0.0-master-2.0.xsd">
<omm id="CCSDS_OMM_VERS" version="2.0">
<header><CREATION_DATE/><ORIGINATOR/></header><body><segment><metadata><OBJECT_NAME>AJISAI (EGS)</OBJECT_NAME><OBJECT_ID>1986-061A</OBJECT_ID><CENTER_NAME>EARTH</CENTER_NAME><REF_FRAME>TEME</REF_FRAME><TIME_SYSTEM>UTC</TIME_SYSTEM><MEAN_ELEMENT_THEORY>SGP4</MEAN_ELEMENT_THEORY></metadata><data><meanElements><EPOCH>2022-06-04T21:50:25.259712</EPOCH><MEAN_MOTION>12.44496312</MEAN_MOTION><ECCENTRICITY>.0011452</ECCENTRICITY><INCLINATION>50.0112</INCLINATION><RA_OF_ASC_NODE>357.6089</RA_OF_ASC_NODE><ARG_OF_PERICENTER>31.2063</ARG_OF_PERICENTER><MEAN_ANOMALY>111.6878</MEAN_ANOMALY></meanElements><tleParameters><EPHEMERIS_TYPE>0</EPHEMERIS_TYPE><CLASSIFICATION_TYPE>U</CLASSIFICATION_TYPE><NORAD_CAT_ID>16908</NORAD_CAT_ID><ELEMENT_SET_NO>999</ELEMENT_SET_NO><REV_AT_EPOCH>29693</REV_AT_EPOCH><BSTAR>.43164E-4</BSTAR><MEAN_MOTION_DOT>-.91E-6</MEAN_MOTION_DOT><MEAN_MOTION_DDOT>0</MEAN_MOTION_DDOT></tleParameters></data></segment></body></omm>
<omm id="CCSDS_OMM_VERS" version="2.0">
<header><CREATION_DATE/><ORIGINATOR/></header><body><segment><metadata><OBJECT_NAME>COSMOS 1812</OBJECT_NAME><OBJECT_ID>1987-003A</OBJECT_ID><CENTER_NAME>EARTH</CENTER_NAME><REF_FRAME>TEME</REF_FRAME><TIME_SYSTEM>UTC</TIME_SYSTEM><MEAN_ELEMENT_THEORY>SGP4</MEAN_ELEMENT_THEORY></metadata><data><meanElements><EPOCH>2022-06-04T10:29:56.848128</EPOCH><MEAN_MOTION>15.17622579</MEAN_MOTION><ECCENTRICITY>.0002396</ECCENTRICITY><INCLINATION>82.5119</INCLINATION><RA_OF_ASC_NODE>158.3658</RA_OF_ASC_NODE><ARG_OF_PERICENTER>8.5552</ARG_OF_PERICENTER><MEAN_ANOMALY>351.5722</MEAN_ANOMALY></meanElements><tleParameters><EPHEMERIS_TYPE>0</EPHEMERIS_TYPE><CLASSIFICATION_TYPE>U</CLASSIFICATION_TYPE><NORAD_CAT_ID>17295</NORAD_CAT_ID><ELEMENT_SET_NO>999</ELEMENT_SET_NO><REV_AT_EPOCH>93332</REV_AT_EPOCH><BSTAR>.10029E-3</BSTAR><MEAN_MOTION_DOT>.2047E-4</MEAN_MOTION_DOT><MEAN_MOTION_DDOT>0</MEAN_MOTION_DDOT></tleParameters></data></segment></body></omm>
<omm id="CCSDS_OMM_VERS" version="2.0">
<header><CREATION_DATE/><ORIGINATOR/></header><body><segment><metadata><OBJECT_NAME>SL-14 R/B</OBJECT_NAME><OBJECT_ID>1987-024B</OBJECT_ID><CENTER_NAME>EARTH</CENTER_NAME><REF_FRAME>TEME</REF_FRAME><TIME_SYSTEM>UTC</TIME_SYSTEM><MEAN_ELEMENT_THEORY>SGP4</MEAN_ELEMENT_THEORY></metadata><data><meanElements><EPOCH>2022-06-04T16:02:52.105632</EPOCH><MEAN_MOTION>14.83936488</MEAN_MOTION><ECCENTRICITY>.0020464</ECCENTRICITY><INCLINATION>82.5278</INCLINATION><RA_OF_ASC_NODE>301.4303</RA_OF_ASC_NODE><ARG_OF_PERICENTER>120.6536</ARG_OF_PERICENTER><MEAN_ANOMALY>239.6700</MEAN_ANOMALY></meanElements><tleParameters><EPHEMERIS_TYPE>0</EPHEMERIS_TYPE><CLASSIFICATION_TYPE>U</CLASSIFICATION_TYPE><NORAD_CAT_ID>17567</NORAD_CAT_ID><ELEMENT_SET_NO>999</ELEMENT_SET_NO><REV_AT_EPOCH>88429</REV_AT_EPOCH><BSTAR>.26163E-4</BSTAR><MEAN_MOTION_DOT>.243E-5</MEAN_MOTION_DOT><MEAN_MOTION_DDOT>0</MEAN_MOTION_DDOT></tleParameters></data></segment></body></omm>
<omm id="CCSDS_OMM_VERS" version="2.0">
<header><CREATION_DATE/><ORIGINATOR/></header><body><segment><metadata><OBJECT_NAME>COSMOS 1833</OBJECT_NAME><OBJECT_ID>1987-027A</OBJECT_ID><CENTER_NAME>EARTH</CENTER_NAME><REF_FRAME>TEME</REF_FRAME><TIME_SYSTEM>UTC</TIME_SYSTEM><MEAN_ELEMENT_THEORY>SGP4</MEAN_ELEMENT_THEORY></metadata><data><meanElements><EPOCH>2022-06-04T21:32:50.486784</EPOCH><MEAN_MOTION>14.12893901</MEAN_MOTION><ECCENTRICITY>.0024855</ECCENTRICITY><INCLINATION>70.9147</INCLINATION><RA_OF_ASC_NODE>333.3148</RA_OF_ASC_NODE><ARG_OF_PERICENTER>115.3424</ARG_OF_PERICENTER><MEAN_ANOMALY>245.0275</MEAN_ANOMALY></meanElements><tleParameters><EPHEMERIS_TYPE>0</EPHEMERIS_TYPE><CLASSIFICATION_TYPE>U</CLASSIFICATION_TYPE><NORAD_CAT_ID>17589</NORAD_CAT_ID><ELEMENT_SET_NO>999</ELEMENT_SET_NO><REV_AT_EPOCH>81625</REV_AT_EPOCH><BSTAR>.6851E-4</BSTAR><MEAN_MOTION_DOT>.8E-6</MEAN_MOTION_DOT><MEAN_MOTION_DDOT>0</MEAN_MOTION_DDOT></tleParameters></data></segment></body></omm>
<omm id="CCSDS_OMM_VERS" version="2.0">
<header><CREATION_DATE/><ORIGINATOR/></header><body><segment><metadata><OBJECT_NAME>SL-16 R/B</OBJECT_NAME><OBJECT_ID>1987-027B</OBJECT_ID><CENTER_NAME>EARTH</CENTER_NAME><REF_FRAME>TEME</REF_FRAME><TIME_SYSTEM>UTC</TIME_SYSTEM><MEAN_ELEMENT_THEORY>SGP4</MEAN_ELEMENT_THEORY></metadata><data><meanElements><EPOCH>2022-06-04T15:48:45.243072</EPOCH><MEAN_MOTION>14.16825803</MEAN_MOTION><ECCENTRICITY>.0003382</ECCENTRICITY><INCLINATION>71.0031</INCLINATION><RA_OF_ASC_NODE>290.9917</RA_OF_ASC_NODE><ARG_OF_PERICENTER>36.8354</ARG_OF_PERICENTER><MEAN_ANOMALY>323.3001</MEAN_ANOMALY></meanElements><tleParameters><EPHEMERIS_TYPE>0</EPHEMERIS_TYPE><CLASSIFICATION_TYPE>U</CLASSIFICATION_TYPE><NORAD_CAT_ID>17590</NORAD_CAT_ID><ELEMENT_SET_NO>999</ELEMENT_SET_NO><REV_AT_EPOCH>82074</REV_AT_EPOCH><BSTAR>-.92389E-4</BSTAR><MEAN_MOTION_DOT>-.233E-5</MEAN_MOTION_DOT><MEAN_MOTION_DDOT>0</MEAN_MOTION_DDOT></tleParameters></data></segment></body></omm>
<omm id="CCSDS_OMM_VERS" version="2.0">
<header><CREATION_DATE/><ORIGINATOR/></header><body><segment><metadata><OBJECT_NAME>SL-14 R/B</OBJECT_NAME><OBJECT_ID>1987-038B</OBJECT_ID><CENTER_NAME>EARTH</CENTER_NAME><REF_FRAME>TEME</REF_FRAME><TIME_SYSTEM>UTC</TIME_SYSTEM><MEAN_ELEMENT_THEORY>SGP4</MEAN_ELEMENT_THEORY></metadata><data><meanElements><EPOCH>2022-06-04T22:07:03.396576</EPOCH><MEAN_MOTION>14.83208713</MEAN_MOTION><ECCENTRICITY>.0020704</ECCENTRICITY><INCLINATION>82.5002</INCLINATION><RA_OF_ASC_NODE>148.3629</RA_OF_ASC_NODE><ARG_OF_PERICENTER>21.6518</ARG_OF_PERICENTER><MEAN_ANOMALY>338.5568</MEAN_ANOMALY></meanElements><tleParameters><EPHEMERIS_TYPE>0</EPHEMERIS_TYPE><CLASSIFICATION_TYPE>U</CLASSIFICATION_TYPE><NORAD_CAT_ID>17912</NORAD_CAT_ID><ELEMENT_SET_NO>999</ELEMENT_SET_NO><REV_AT_EPOCH>87546</REV_AT_EPOCH><BSTAR>.23925E-4</BSTAR><MEAN_MOTION_DOT>.22E-5</MEAN_MOTION_DOT><MEAN_MOTION_DDOT>0</MEAN_MOTION_DDOT></tleParameters></data></segment></body></omm>
<omm id="CCSDS_OMM_VERS" version="2.0">
<header><CREATION_DATE/><ORIGINATOR/></header><body><segment><metadata><OBJECT_NAME>COSMOS 1844</OBJECT_NAME><OBJECT_ID>1987-041A</OBJECT_ID><CENTER_NAME>EARTH</CENTER_NAME><REF_FRAME>TEME</REF_FRAME><TIME_SYSTEM>UTC</TIME_SYSTEM><MEAN_ELEMENT_THEORY>SGP4</MEAN_ELEMENT_THEORY></metadata><data><meanElements><EPOCH>2022-06-05T01:12:06.908544</EPOCH><MEAN_MOTION>14.14151264</MEAN_MOTION><ECCENTRICITY>.0033149</ECCENTRICITY><INCLINATION>70.8993</INCLINATION><RA_OF_ASC_NODE>50.5160</RA_OF_ASC_NODE><ARG_OF_PERICENTER>283.0121</ARG_OF_PERICENTER><MEAN_ANOMALY>76.7300</MEAN_ANOMALY></meanElements><tleParameters><EPHEMERIS_TYPE>0</EPHEMERIS_TYPE><CLASSIFICATION_TYPE>U</CLASSIFICATION_TYPE><NORAD_CAT_ID>17973</NORAD_CAT_ID><ELEMENT_SET_NO>999</ELEMENT_SET_NO><REV_AT_EPOCH>80956</REV_AT_EPOCH><BSTAR>-.56949E-4</BSTAR><MEAN_MOTION_DOT>-.158E-5</MEAN_MOTION_DOT><MEAN_MOTION_DDOT>0</MEAN_MOTION_DDOT></tleParameters></data></segment></body></omm>
<omm id="CCSDS_OMM_VERS" version="2.0">
<header><CREATION_DATE/><ORIGINATOR/></header><body><segment><metadata><OBJECT_NAME>SL-14 R/B</OBJECT_NAME><OBJECT_ID>1987-055B</OBJECT_ID><CENTER_NAME>EARTH</CENTER_NAME><REF_FRAME>TEME</REF_FRAME><TIME_SYSTEM>UTC</TIME_SYSTEM><MEAN_ELEMENT_THEORY>SGP4</MEAN_ELEMENT_THEORY></metadata><data><meanElements><EPOCH>2022-06-04T20:45:15.144768</EPOCH><MEAN_MOTION>14.83459064</MEAN_MOTION><ECCENTRICITY>.0020413</ECCENTRICITY><INCLINATION>82.5007</INCLINATION><RA_OF_ASC_NODE>201.4862</RA_OF_ASC_NODE><ARG_OF_PERICENTER>225.0636</ARG_OF_PERICENTER><MEAN_ANOMALY>134.8924</MEAN_ANOMALY></meanElements><tleParameters><EPHEMERIS_TYPE>0</EPHEMERIS_TYPE><CLASSIFICATION_TYPE>U</CLASSIFICATION_TYPE><NORAD_CAT_ID>18153</NORAD_CAT_ID><ELEMENT_SET_NO>999</ELEMENT_SET_NO><REV_AT_EPOCH>86613</REV_AT_EPOCH><BSTAR>.17924E-4</BSTAR><MEAN_MOTION_DOT>.171E-5</MEAN_MOTION_DOT><MEAN_MOTION_DDOT>0</MEAN_MOTION_DDOT></tleParameters></data></segment></body></omm>

</ndm>
