AJISAI (EGS)            
1 16908U 86061A   22155.91001458 -.00000091  00000+0  43164-4 0  9990
2 16908  50.0112 357.6089 0011452  31.2063 111.6878 12.44496312296938
COSMOS 1812             
1 17295U 87003A   22155.43746352  .00002047  00000+0  10029-3 0  9998
2 17295  82.5119 158.3658 0002396   8.5552 351.5722 15.17622579933323
SL-14 R/B               
1 17567U 87024B   22155.66865863  .00000243  00000+0  26163-4 0  9990
2 17567  82.5278 301.4303 0020464 120.6536 239.6700 14.83936488884295
COSMOS 1833             
1 17589U 87027A   22155.89780656  .00000080  00000+0  68510-4 0  9999
2 17589  70.9147 333.3148 0024855 115.3424 245.0275 14.12893901816254
SL-16 R/B               
1 17590U 87027B   22155.65885698 -.00000233  00000+0 -92389-4 0  9990
2 17590  71.0031 290.9917 0003382  36.8354 323.3001 14.16825803820749
SL-14 R/B               
1 17912U 87038B   22155.92156709  .00000220  00000+0  23925-4 0  9998
2 17912  82.5002 148.3629 0020704  21.6518 338.5568 14.83208713875463
COSMOS 1844             
1 17973U 87041A   22156.05007996 -.00000158  00000+0 -56949-4 0  9991
2 17973  70.8993  50.5160 0033149 283.0121  76.7300 14.14151264809569
SL-14 R/B               
1 18153U 87055B   22155.86475862  .00000171  00000+0  17924-4 0  9999
2 18153  82.5007 201.4862 0020413 225.0636 134.8924 14.83459064866138
